OBJECT_NAME,OBJECT_ID,EPOCH,MEAN_MOTION,ECCENTRICITY,INCLINATION,RA_OF_ASC_NODE,ARG_OF_PERICENTER,MEAN_ANOMALY,EPHEMERIS_TYPE,CLASSIFICATION_TYPE,NORAD_CAT_ID,ELEMENT_SET_NO,REV_AT_EPOCH,BSTAR,MEAN_MOTION_DOT,MEAN_MOTION_DDOT
NUVIEW BRAVO,2024-252D,2026-06-14T11:00:03.167136,1.00270360,.0001799,0.0695,149.9592,332.1915,222.5052,0,U,62457,999,376,0,-.207E-5,0
THURAYA-4,2025-001A,2026-06-14T11:36:22.186368,1.00271797,.0000265,0.0229,57.7241,210.8207,212.6399,0,U,62483,999,415,0,.147E-5,0
SHIJIAN-25 (SJ-25),2025-002A,2026-06-13T18:30:22.105152,1.00269176,.0052236,5.1048,61.1838,173.2448,72.5687,0,U,62485,999,532,0,-.344E-5,0
TJS-14,2025-017A,2026-06-14T13:11:39.731424,1.00273099,.0000976,0.7888,295.4304,290.2900,253.4173,0,U,62804,999,524,0,.123E-5,0
SPAINSAT NG I,2025-021A,2026-06-14T11:31:52.614912,1.00269636,.0000242,0.0160,338.7746,285.1401,200.8359,0,U,62852,999,396,0,.159E-5,0
QZS-6 (MICHIBIKI-6),2025-023A,2026-06-14T12:37:40.418400,1.00271327,.00017,0.0472,67.2156,23.1114,92.4408,0,U,62876,999,492,0,-.226E-5,0
ZHONGXING-10R,2025-036A,2026-06-14T11:55:16.964832,1.00273041,.000346,0.0316,247.0986,253.5033,51.5409,0,U,63075,999,493,0,-.345E-5,0
TJS-15,2025-045A,2026-06-13T17:43:11.731872,1.00272543,.0004685,0.2796,85.4960,296.5136,240.2268,0,U,63157,999,472,0,-.254E-5,0
TIANLIAN 2-04,2025-062A,2026-06-14T10:03:48.606912,1.00271692,.0031742,4.3821,274.4821,10.3628,208.8780,0,U,63361,999,457,0,-.124E-5,0
TJS-16,2025-064A,2026-06-13T15:37:37.053120,1.00271351,.0003372,1.0888,81.4744,288.9856,286.5162,0,U,63397,999,435,0,-.95E-6,0
TJS-17,2025-073A,2026-06-13T15:38:44.445120,1.00271862,.0002099,1.0546,82.7223,295.8246,282.6321,0,U,63524,999,425,0,-.59E-6,0
TIANLIAN 2-05,2025-084A,2026-06-14T13:12:09.682848,1.00269199,.0003089,4.4581,279.8665,146.2315,55.1515,0,U,63662,999,435,0,.135E-5,0
TJS-19,2025-097A,2026-06-13T17:46:26.186304,1.00266676,.0002297,3.2925,317.3828,240.9676,111.5152,0,U,63924,999,410,0,-.266E-5,0
CHINASAT 3B,2025-106A,2026-06-14T07:53:33.961920,1.00271243,.0002802,0.0285,100.5779,21.7353,66.0309,0,U,64062,999,403,0,-.37E-6,0
SXM-10,2025-122A,2026-06-14T03:36:02.534976,1.00272038,.00016589,0.0190,22.3904,338.0243,199.8816,0,U,64290,999,365,0,-.8E-7,0
COSMOS 2589,2025-131A,2026-06-13T17:23:55.449312,1.00262709,.000079,0.0440,85.5258,111.0994,64.3525,0,U,64467,999,352,0,-.279E-5,0
CHINASAT 9C,2025-132A,2026-06-14T13:31:54.015168,1.00268362,.0002518,0.0180,353.2481,89.4060,115.3872,0,U,64470,999,412,0,0,0
MTG-S1,2025-143A,2026-06-14T07:57:24.260256,1.00271745,.0000982,0.6057,338.3103,11.4197,28.7810,0,U,64723,999,339,0,-.23E-6,0
DROR 1,2025-148A,2026-06-14T07:57:16.771104,1.00271708,.000254,0.0278,54.4280,333.7657,349.7548,0,U,64784,999,326,0,-.26E-6,0
SHIYAN-29,2025-196A,2026-06-09T01:48:31.441824,1.00256520,.00109724,28.8121,18.6391,171.7452,188.2752,0,U,65486,999,279,0,-.259E-5,0
NUSANTARA LIMA (NUSANTARA 5),2025-205A,2026-06-14T12:09:39.819168,1.00278321,.0000282,0.0174,92.3363,216.9196,248.8253,0,U,65588,999,269,0,-.351E-5,0
TJS-20,2025-238A,2026-06-14T11:41:29.194080,1.00273665,.0004502,5.4758,299.5661,162.0999,38.9141,0,U,66142,999,230,0,.35E-6,0
CMS-03 (GSAT-7R),2025-249B,2026-06-14T11:44:51.370944,1.00270231,.0001481,0.0180,355.1023,85.5512,72.3365,0,U,66311,999,232,0,0,0
VIASAT-3 F2,2025-261A,2026-06-13T14:29:22.096608,1.00268992,.00001902,0.0436,156.3674,171.0236,72.8878,0,U,66454,999,275,0,-.222E-5,0
SHIJIAN-28 (SJ-28),2025-277A,2026-06-14T06:49:03.992736,1.00264017,.0000823,4.5461,272.1823,348.1398,221.2914,0,U,66549,999,212,0,-.347E-5,0
TJS-22,2025-290A,2026-06-13T21:14:22.170912,1.00273079,.0001911,1.5364,286.5231,330.6938,30.0362,0,U,66990,999,199,0,.4E-7,0
TJS-23,2025-306A,2026-06-13T14:40:47.951040,1.00274515,.0005367,5.5959,297.5066,169.3780,190.7656,0,U,67226,999,185,0,.31E-6,0
FENGYUN 4C,2025-312A,2026-06-14T12:31:38.755776,1.00270609,.000056,0.0503,147.2658,64.2753,12.1829,0,U,67246,999,175,0,-.316E-5,0
SHIJIAN-29A (SJ-29A),2025-315A,2026-06-14T04:47:21.643584,1.00269522,.00030916,3.3900,95.1825,25.6394,286.7270,0,U,67302,999,158,0,-.61E-6,0
SHIJIAN-29B (SJ-29B),2025-315C,2026-06-13T23:45:59.068800,1.00269369,.00036701,3.3882,95.1799,32.4891,204.3731,0,U,67403,999,165,0,-.6E-6,0
ELEKTRO-L 5,2026-028A,2026-06-14T01:26:27.725568,1.00271153,.00017512,0.2571,310.4463,180.7679,228.8062,0,U,67756,999,122,0,-.88E-6,0
JAM-E JAM 1,2026-028B,2026-06-14T04:42:47.232000,1.00273958,.0001204,0.2665,301.4213,299.6871,126.0115,0,U,67757,999,109,0,.165E-5,0
